ONEWEB-0531             
1 54146U 22138AK  24214.46687195  .00000009  00000+0 -10660-4 0  9991
2 54146  87.9183  50.6481 0002052 119.5213 240.6126 13.20771669 88923
ONEWEB-0535             
1 54147U 22138AL  24214.15038643  .00000083  00000+0  17395-3 0  9998
2 54147  87.9110  81.2610 0001838  89.2979 270.8365 13.19724005 86480
ONEWEB-0536             
1 54148U 22138AM  24214.90878343 -.00000024  00000+0 -90652-4 0  9996
2 54148  87.9182  50.6086 0002545 108.1762 251.9649 13.20769186 89843
ONEWEB-0527             
1 54642U 22166A   24214.49736247  .00000071  00000+0  14138-3 0  9990
2 54642  87.9294  20.2972 0001715  94.1873 265.9457 13.21827157 81082
ONEWEB-0528             
1 54643U 22166B   24214.50366791  .00000045  00000+0  77574-4 0  9991
2 54643  87.9298  20.2843 0001676  88.7437 271.3889 13.21824253 81090
ONEWEB-0539             
1 54644U 22166C   24214.61562873  .00000009  00000+0 -96577-5 0  9999
2 54644  87.9298  20.2649 0001984  88.0647 272.0714 13.21827794 81103
ONEWEB-0540             
1 54645U 22166D   24214.45872677  .00000024  00000+0  25769-4 0  9998
2 54645  87.9292  20.3119 0001981  85.6253 274.5108 13.21827212 81079
ONEWEB-0542             
1 54646U 22166E   24214.85220205 -.00000005  00000+0 -43087-4 0  9991
2 54646  87.9297  20.2172 0002295  89.2739 270.8658 13.21826129 81593
